0 FENGYUN 1C DEB
1 31411U 99025BSX 13283.10632047  .00000422  00000-0  20220-3 0  4201
2 31411 098.8013 247.1824 0111714 127.7522 233.3795 14.20830982338485
0 FENGYUN 1C DEB
1 31411U 99025BSX 13285.73557067  .00000518  00000-0  24384-3 0  4212
2 31411 098.8039 249.8094 0112339 120.6251 001.5669 14.20835827338855
0 FENGYUN 1C DEB
1 31411U 99025BSX 13287.13215456  .00000582  00000-0  27160-3 0  4228
2 31411 098.8042 251.2008 0112391 116.6435 305.0738 14.20837677339055
0 FENGYUN 1C DEB
1 31411U 99025BSX 13289.10400699  .00000696  00000-0  32107-3 0  4236
2 31411 098.8047 253.1653 0112424 111.0194 311.0900 14.20841580339332
0 FENGYUN 1C DEB
1 31411U 99025BSX 13291.14536145  .00000699  00000-0  32240-3 0  4241
2 31411 098.8054 255.1991 0112429 105.2078 312.6247 14.20844859339623
0 FENGYUN 1C DEB
1 31411U 99025BSX 13294.74879926  .00000947  00000-0  42976-3 0  4251
2 31411 098.8057 258.7903 0112431 094.9289 024.3020 14.20850481340131
